{
"type": "FeatureCollection",
"name": "flood",
"crs": { "type": "name", "properties": { "name": "urn:ogc:def:crs:OGC:1.3:CRS84" } },
"features": [
{ "type": "Feature", "properties": { }, "geometry": { "type": "Polygon", "coordinates": [ [ [ -76.711151244305611, 39.27874228659693 ], [ -76.710370185090071, 39.279351450213682 ], [ -76.709404589844581, 39.279507581209884 ], [ -76.709151389248063, 39.279105626077445 ], [ -76.708387496316959, 39.279404601234901 ], [ -76.707833887983355, 39.279128879896142 ], [ -76.711159827162277, 39.277786798324826 ], [ -76.711151244305611, 39.27874228659693 ] ] ] } },
{ "type": "Feature", "properties": { }, "geometry": { "type": "Polygon", "coordinates": [ [ [ -76.702051044856802, 39.280862916616812 ], [ -76.699059844839155, 39.281271505423781 ], [ -76.694562317122518, 39.281411023019515 ], [ -76.694553733857234, 39.280989147585821 ], [ -76.698995472313882, 39.280975860016071 ], [ -76.700274349703307, 39.28069682293998 ], [ -76.700420261611811, 39.280311484017005 ], [ -76.701720596673383, 39.280158676696637 ], [ -76.702051044856802, 39.280862916616812 ] ] ] } },
{ "type": "Feature", "properties": { }, "geometry": { "type": "Polygon", "coordinates": [ [ [ -76.673845471001755, 39.274793183077897 ], [ -76.674991310807158, 39.274384556549542 ], [ -76.675062121108766, 39.274497510456698 ], [ -76.674120129270278, 39.275022411551937 ], [ -76.673845471001755, 39.274793183077897 ] ] ] } },
{ "type": "Feature", "properties": { }, "geometry": { "type": "Polygon", "coordinates": [ [ [ -76.662513674060293, 39.276767347791143 ], [ -76.660350740972788, 39.277464977590746 ], [ -76.658917368082456, 39.276235815438795 ], [ -76.657621324817541, 39.2758969616415 ], [ -76.658659876017055, 39.27472757074257 ], [ -76.660831392697261, 39.273617960289464 ], [ -76.662513674060293, 39.276767347791143 ] ] ] } },
{ "type": "Feature", "properties": { }, "geometry": { "type": "Polygon", "coordinates": [ [ [ -76.645416201177611, 39.269950139924269 ], [ -76.641030253127781, 39.269996653378094 ], [ -76.640635431436962, 39.268707556104076 ], [ -76.64163965088494, 39.267132698977505 ], [ -76.645304621020657, 39.268395245438043 ], [ -76.646137179091696, 39.269405266280678 ], [ -76.645416201177611, 39.269950139924269 ] ] ] } },
{ "type": "Feature", "properties": { }, "geometry": { "type": "Polygon", "coordinates": [ [ [ -76.632844984658661, 39.269905756783729 ], [ -76.635437071843342, 39.270058586720531 ], [ -76.636312544931201, 39.271042004811378 ], [ -76.63091379416808, 39.275194801094898 ], [ -76.628725111612113, 39.273374245639367 ], [ -76.626673758681562, 39.27496889534666 ], [ -76.624579489751966, 39.273746333842624 ], [ -76.628218711074027, 39.271261278672398 ], [ -76.629995406063429, 39.272357637431817 ], [ -76.632844984658661, 39.269905756783729 ] ] ] } },
{ "type": "Feature", "properties": { }, "geometry": { "type": "Polygon", "coordinates": [ [ [ -76.600337078964898, 39.285674020061222 ], [ -76.599216988545606, 39.285723844665043 ], [ -76.599182656139234, 39.285338533523401 ], [ -76.600319912761705, 39.285288708645481 ], [ -76.600337078964898, 39.285674020061222 ] ] ] } },
{ "type": "Feature", "properties": { }, "geometry": { "type": "Polygon", "coordinates": [ [ [ -76.599074292864799, 39.284270613254478 ], [ -76.595975805142018, 39.284410124876572 ], [ -76.595881391515675, 39.282463580239138 ], [ -76.598945546832098, 39.282330708365507 ], [ -76.599074292864799, 39.284270613254478 ] ] ] } },
{ "type": "Feature", "properties": { }, "geometry": { "type": "Polygon", "coordinates": [ [ [ -76.592310836316187, 39.282611399104212 ], [ -76.587959220507955, 39.282737627207517 ], [ -76.58819954637022, 39.2824453098901 ], [ -76.587675978973991, 39.282455275247713 ], [ -76.587663104567156, 39.282106486000451 ], [ -76.588435580763559, 39.282050015171706 ], [ -76.588405539826141, 39.281432154969565 ], [ -76.587324073282161, 39.281452086225073 ], [ -76.587281157938037, 39.280189774894467 ], [ -76.587783267334714, 39.280139946353955 ], [ -76.587122370967876, 39.279495494112382 ], [ -76.587607314488835, 39.279203163043341 ], [ -76.588624408343861, 39.279980494684729 ], [ -76.589401176009204, 39.27946891840368 ], [ -76.590448310474244, 39.280372479113069 ], [ -76.590791633228207, 39.280106727180517 ], [ -76.591014792887307, 39.280282788049895 ], [ -76.590615680054867, 39.280575114360225 ], [ -76.591113498309994, 39.281857349633761 ], [ -76.592276504073524, 39.281850705963201 ], [ -76.592310836316187, 39.282611399104212 ] ] ] } },
{ "type": "Feature", "properties": { }, "geometry": { "type": "Polygon", "coordinates": [ [ [ -76.579040873569014, 39.279777029341197 ], [ -76.578079570119911, 39.279192368713076 ], [ -76.57922540968022, 39.277999778949258 ], [ -76.579161036663848, 39.277581205072998 ], [ -76.580319751122147, 39.277777204210629 ], [ -76.580139506479881, 39.278438282437719 ], [ -76.580422747850136, 39.278541263833191 ], [ -76.580388415607473, 39.27911596393735 ], [ -76.579753268545403, 39.279062812728824 ], [ -76.579564440965243, 39.2796707278236 ], [ -76.579040873569014, 39.279777029341197 ] ] ] } },
{ "type": "Feature", "properties": { }, "geometry": { "type": "Polygon", "coordinates": [ [ [ -76.530591590910916, 39.302551733548277 ], [ -76.53045426128547, 39.300977637494711 ], [ -76.530909164196288, 39.297610148113051 ], [ -76.536857231169151, 39.300904577163173 ], [ -76.537629707037951, 39.301907487410247 ], [ -76.534393890017185, 39.303594469855028 ], [ -76.533398254161924, 39.302677925361031 ], [ -76.530591590910916, 39.302551733548277 ] ] ] } },
{ "type": "Feature", "properties": { }, "geometry": { "type": "Polygon", "coordinates": [ [ [ -76.651790963025917, 39.369552470430008 ], [ -76.648263321533392, 39.369134444030649 ], [ -76.647902832903753, 39.36857043620968 ], [ -76.64853798012939, 39.368497446604017 ], [ -76.648203240313379, 39.367462313408488 ], [ -76.647319183960221, 39.367422500389061 ], [ -76.647096024301163, 39.365690607772827 ], [ -76.647671090306829, 39.365710514525951 ], [ -76.64734493342867, 39.364635525538731 ], [ -76.650185929413468, 39.364409908321576 ], [ -76.650563584246299, 39.366851843013464 ], [ -76.651790963025917, 39.369552470430008 ] ] ] } },
{ "type": "Feature", "properties": { }, "geometry": { "type": "Polygon", "coordinates": [ [ [ -76.686619984378481, 39.362171946110351 ], [ -76.685658680601932, 39.362898586793641 ], [ -76.684040772254889, 39.362792411458209 ], [ -76.683671700032463, 39.362450658608232 ], [ -76.683585869343986, 39.36155147550383 ], [ -76.685890423198927, 39.361594609984053 ], [ -76.686619984378481, 39.362171946110351 ] ] ] } },
{ "type": "Feature", "properties": { }, "geometry": { "type": "Polygon", "coordinates": [ [ [ -76.640745869699941, 39.329317700302973 ], [ -76.639921895221434, 39.327850435027841 ], [ -76.63624405018696, 39.326993962497191 ], [ -76.635553113210122, 39.326695190324095 ], [ -76.635647526836493, 39.3264594917529 ], [ -76.638209573084339, 39.326615517925823 ], [ -76.640265217975383, 39.327130068977979 ], [ -76.641089192453904, 39.32927786545077 ], [ -76.640745869699941, 39.329317700302973 ] ] ] } },
{ "type": "Feature", "properties": { }, "geometry": { "type": "Polygon", "coordinates": [ [ [ -76.645714393908406, 39.334275303541631 ], [ -76.64531957270863, 39.334467824727184 ], [ -76.644285312977829, 39.33396992400673 ], [ -76.642358413955847, 39.331938452426279 ], [ -76.643753162643762, 39.33186874407226 ], [ -76.64389907455228, 39.332774947887131 ], [ -76.645714393908406, 39.334275303541631 ] ] ] } },
{ "type": "Feature", "properties": { }, "geometry": { "type": "Polygon", "coordinates": [ [ [ -76.627493611758922, 39.278479928156294 ], [ -76.626291982120094, 39.278121153141988 ], [ -76.62673830143828, 39.277107935679446 ], [ -76.627978554952435, 39.277450105980847 ], [ -76.627493611758922, 39.278479928156294 ] ] ] } },
{ "type": "Feature", "properties": { }, "geometry": { "type": "Polygon", "coordinates": [ [ [ -76.630384506170344, 39.354170379027373 ], [ -76.629337371541595, 39.354283204137737 ], [ -76.629114211882481, 39.353407144914307 ], [ -76.630290092380264, 39.353314229055066 ], [ -76.630384506170344, 39.354170379027373 ] ] ] } },
{ "type": "Feature", "properties": { }, "geometry": { "type": "Polygon", "coordinates": [ [ [ -76.631153763682676, 39.323873545690901 ], [ -76.629977883184893, 39.322827791699204 ], [ -76.630179585171874, 39.32176210255016 ], [ -76.62996500845064, 39.321446708561197 ], [ -76.630595864207478, 39.321018434142992 ], [ -76.631956280489078, 39.32365111664069 ], [ -76.631153763682676, 39.323873545690901 ] ] ] } },
{ "type": "Feature", "properties": { }, "geometry": { "type": "Polygon", "coordinates": [ [ [ -76.646471878642075, 39.311022167940308 ], [ -76.646549126228933, 39.311945243849578 ], [ -76.646085640544058, 39.311955205024788 ], [ -76.646019121793231, 39.311037109812609 ], [ -76.646471878642075, 39.311022167940308 ] ] ] } },
{ "type": "Feature", "properties": { }, "geometry": { "type": "Polygon", "coordinates": [ [ [ -76.676188608956636, 39.326296179731756 ], [ -76.675238034016559, 39.32601566337182 ], [ -76.675540587160597, 39.325464586385777 ], [ -76.67646326706145, 39.325746764864107 ], [ -76.676188608956636, 39.326296179731756 ] ] ] } },
{ "type": "Feature", "properties": { }, "geometry": { "type": "Polygon", "coordinates": [ [ [ -76.675057789701555, 39.331229930663589 ], [ -76.673881909204312, 39.330883044231463 ], [ -76.674128672433596, 39.33040503508137 ], [ -76.67527880370794, 39.330751923979783 ], [ -76.675057789701555, 39.331229930663589 ] ] ] } },
{ "type": "Feature", "properties": { }, "geometry": { "type": "Polygon", "coordinates": [ [ [ -76.701428195787358, 39.342727663341449 ], [ -76.700934669328774, 39.342656306238268 ], [ -76.701074144197491, 39.342246416265397 ], [ -76.701591274062665, 39.342357601241694 ], [ -76.701428195787358, 39.342727663341449 ] ] ] } },
{ "type": "Feature", "properties": { }, "geometry": { "type": "Polygon", "coordinates": [ [ [ -76.711276187464392, 39.353265314841309 ], [ -76.7101968664916, 39.352450634598704 ], [ -76.710939301913953, 39.351934610293007 ], [ -76.711289062034922, 39.35231789558501 ], [ -76.711276187464392, 39.353265314841309 ] ] ] } },
{ "type": "Feature", "properties": { }, "geometry": { "type": "Polygon", "coordinates": [ [ [ -76.700596165676743, 39.356170957340403 ], [ -76.70006616124104, 39.356642153704477 ], [ -76.699031901346984, 39.356243959765045 ], [ -76.699800086074106, 39.355618458906171 ], [ -76.700596165676743, 39.356170957340403 ] ] ] } },
{ "type": "Feature", "properties": { }, "geometry": { "type": "Polygon", "coordinates": [ [ [ -76.684195532628451, 39.367738405928876 ], [ -76.684178366425272, 39.367154480212051 ], [ -76.685146107404805, 39.367134573427577 ], [ -76.68516756507691, 39.367726793835942 ], [ -76.684195532628451, 39.367738405928876 ] ] ] } },
{ "type": "Feature", "properties": { }, "geometry": { "type": "Polygon", "coordinates": [ [ [ -76.678648613642721, 39.265452472893145 ], [ -76.679307364192951, 39.265952522424186 ], [ -76.678552054118185, 39.266568857767716 ], [ -76.67789330364981, 39.266075457832926 ], [ -76.678648613642721, 39.265452472893145 ] ] ] } },
{ "type": "Feature", "properties": { }, "geometry": { "type": "Polygon", "coordinates": [ [ [ -76.546972773360281, 39.334022779326986 ], [ -76.546294710954257, 39.334499104013439 ], [ -76.545715353807225, 39.333991245495817 ], [ -76.546597264098295, 39.333582964371921 ], [ -76.546972773360281, 39.334022779326986 ] ] ] } },
{ "type": "Feature", "properties": { }, "geometry": { "type": "Polygon", "coordinates": [ [ [ -76.560741090837169, 39.349062367707766 ], [ -76.560206258294215, 39.348371258920288 ], [ -76.560528123212237, 39.347953105686379 ], [ -76.560777032339686, 39.348248468084471 ], [ -76.561105334624784, 39.347833632946596 ], [ -76.561959349958499, 39.348553785307942 ], [ -76.561656796814461, 39.348922155305502 ], [ -76.561337077467229, 39.348708102687475 ], [ -76.560741090837169, 39.349062367707766 ] ] ] } },
{ "type": "Feature", "properties": { }, "geometry": { "type": "Polygon", "coordinates": [ [ [ -76.600935602103121, 39.350273243398902 ], [ -76.599562310924199, 39.350148796718905 ], [ -76.599618101002676, 39.34977379599561 ], [ -76.600991392017875, 39.34988994687528 ], [ -76.600935602103121, 39.350273243398902 ] ] ] } },
{ "type": "Feature", "properties": { }, "geometry": { "type": "Polygon", "coordinates": [ [ [ -76.647654845314293, 39.355348312593492 ], [ -76.645624949400556, 39.356461604944023 ], [ -76.644997312491, 39.355951417271982 ], [ -76.644407226507639, 39.354806592350378 ], [ -76.647040082484111, 39.353904822146156 ], [ -76.647654845314293, 39.355348312593492 ] ] ] } }
]
}
